GPS BIIR-2  (PRN 13)    
1 24876U 97035A   20070.22276398  .00000011  00000-0  00000-0 0  9991
2 24876  55.4558 188.0283 0039489  63.9755 296.4089  2.00564852166024
GPS BIIR-3  (PRN 11)    
1 25933U 99055A   20070.43135937 -.00000067  00000-0  00000-0 0  9998
2 25933  52.2668  34.2752 0156641 112.9061 341.3551  2.00558133149653
GPS BIIR-4  (PRN 20)    
1 26360U 00025A   20071.50674372  .00000013  00000-0  00000-0 0  9992
2 26360  53.4718 113.2489 0049285 152.2856  32.8561  2.00567996145360
GPS BIIR-5  (PRN 28)    
1 26407U 00040A   20071.05635241 -.00000020  00000-0  00000-0 0  9992
2 26407  56.0672 306.0505 0188211 279.0134 265.0203  2.00564515144031
GPS BIIR-6  (PRN 14)    
1 26605U 00071A   20070.54008900  .00000012  00000-0  00000-0 0  9995
2 26605  55.0315 185.3564 0112853 249.9736 195.7426  2.00569353141623
GPS BIIR-8  (PRN 16)    
1 27663U 03005A   20072.37202012 -.00000030  00000-0  00000+0 0  9993
2 27663  56.1231 305.7819 0113519  34.0697 146.2792  2.00557478125418
GPS BIIR-9  (PRN 21)    
1 27704U 03010A   20067.84617875 -.00000015  00000-0  00000+0 0  9991
2 27704  54.5560  57.1530 0250433 282.2417 196.7105  2.00578054124121
GPS BIIR-10 (PRN 22)    
1 28129U 03058A   20070.41551256  .00000023  00000-0  00000-0 0  9991
2 28129  53.2820 116.0288 0073739 290.0953  69.1963  2.00577122118861
GPS BIIR-11 (PRN 19)    
1 28190U 04009A   20071.73383472 -.00000081  00000-0  00000-0 0  9990
2 28190  56.2816   6.5922 0090138  89.9493 142.7411  2.00563523117080
GPS BIIR-12 (PRN 23)    
1 28361U 04023A   20071.99926873  .00000015  00000-0  00000+0 0  9997
2 28361  54.0578 179.3900 0137772 235.2509  99.9774  2.00565744115165
GPS BIIR-13 (PRN 02)    
1 28474U 04045A   20071.27749545 -.00000037  00000-0  00000+0 0  9991
2 28474  54.9072  56.8608 0200241 265.5024 275.2342  2.00566062112512
GPS BIIRM-1 (PRN 17)    
1 28874U 05038A   20070.69110900 -.00000077  00000-0  00000-0 0  9995
2 28874  56.3901   4.0117 0135701 265.6639 314.9742  2.00564987105919
GPS BIIRM-2 (PRN 31)    
1 29486U 06042A   20072.24008127  .00000030  00000-0  00000-0 0  9999
2 29486  54.8962 242.2656 0096204   5.9231 169.7300  2.00549274 98548
GPS BIIRM-3 (PRN 12)    
1 29601U 06052A   20070.94052513 -.00000017  00000-0  00000-0 0  9998
2 29601  56.1094 304.7572 0078382  63.3535 297.5059  2.00556805 97493
GPS BIIRM-4 (PRN 15)    
1 32260U 07047A   20071.24605642  .00000013  00000-0  00000+0 0  9993
2 32260  53.1812 174.8590 0120078  49.0468 311.9948  2.00565878 90924
GPS BIIRM-5 (PRN 29)    
1 32384U 07062A   20071.86789793 -.00000081  00000-0  00000-0 0  9992
2 32384  56.4825   4.6317 0009658 111.4073 106.8377  2.00570698 89655
GPS BIIRM-6 (PRN 07)    
1 32711U 08012A   20071.66472992  .00000027  00000-0  00000+0 0  9998
2 32711  54.6412 241.4150 0135863 222.4346 136.4722  2.00561629 87858
GPS BIIRM-8 (PRN 05)    
1 35752U 09043A   20071.37202038  .00000019  00000-0  00000-0 0  9993
2 35752  54.5427 119.0142 0056075  43.5020 136.7871  2.00570061 77453
GPS BIIF-1  (PRN 25)    
1 36585U 10022A   20071.86879778 -.00000021  00000-0  00000+0 0  9995
2 36585  55.3835 300.8261 0090084  51.1679 232.1033  2.00574460 71693
GPS BIIF-2  (PRN 01)    
1 37753U 11036A   20071.10674304 -.00000027  00000-0  00000-0 0  9991
2 37753  56.1103  61.1474 0093486  42.1717 138.1016  2.00568556 63363
GPS BIIF-3  (PRN 24)    
1 38833U 12053A   20070.84933025  .00000024  00000-0  00000-0 0  9995
2 38833  53.6817 237.3893 0094471  36.9418 323.6652  2.00564576 53637
GPS BIIF-4  (PRN 27)    
1 39166U 13023A   20070.70583112 -.00000077  00000-0  00000-0 0  9995
2 39166  56.0574   0.6934 0079028  28.2354 332.1986  2.00565397 49963
GPS BIIF-5  (PRN 30)    
1 39533U 14008A   20071.20861275  .00000024  00000-0  00000+0 0  9992
2 39533  53.8013 242.7993 0043902 195.2316 164.6030  2.00562556 44320
GPS BIIF-6  (PRN 06)    
1 39741U 14026A   20070.49038686 -.00000024  00000-0  00000-0 0  9997
2 39741  56.0845  60.6988 0021437 294.0565  65.7283  2.00553039 42610
GPS BIIF-7  (PRN 09)    
1 40105U 14045A   20070.57412867  .00000012  00000-0  00000+0 0  9995
2 40105  54.5839 179.8980 0014603 104.5200 255.6382  2.00551391 41040
GPS BIIF-8  (PRN 03)    
1 40294U 14068A   20070.44942708  .00000029  00000-0  00000-0 0  9996
2 40294  55.2930 120.8173 0025103  36.5427 323.7145  2.00572178 39284
GPS BIIF-9  (PRN 26)    
1 40534U 15013A   20071.58485380 -.00000018  00000-0  00000-0 0  9997
2 40534  54.3022 298.8966 0046618   8.9649 351.1684  2.00574113 35923
GPS BIIF-10 (PRN 08)    
1 40730U 15033A   20070.74361432 -.00000078  00000-0  00000-0 0  9991
2 40730  55.5764 359.9092 0053017 349.0987  10.7974  2.00567972 34093
GPS BIIF-11 (PRN 10)    
1 41019U 15062A   20071.29352587  .00000022  00000-0  00000-0 0  9994
2 41019  55.2918 120.6070 0055769 210.0213 149.7401  2.00564418 31925
GPS BIIF-12 (PRN 32)    
1 41328U 16007A   20068.39257902 -.00000000  00000-0  00000+0 0  9995
2 41328  54.8220 180.4449 0038112 219.1885 140.5200  2.00561333 29927
GPS BIII-1  (PRN 04)    
1 43873U 18109A   20071.62612951  .00000017  00000-0  00000-0 0  9994
2 43873  55.0024 182.5662 0007254 222.8296 204.3092  2.00558706  9217
